[{"OBJECT_NAME":"HXMT (HUIYAN)","OBJECT_ID":"2017-034A","EPOCH":"2026-03-09T23:24:09.166176","MEAN_MOTION":15.17468939,"ECCENTRICITY":0.00329459,"INCLINATION":43.0157,"RA_OF_ASC_NODE":15.0865,"ARG_OF_PERICENTER":237.7405,"MEAN_ANOMALY":122.0249,"EPHEMERIS_TYPE":0,"CLASSIFICATION_TYPE":"U","NORAD_CAT_ID":42758,"ELEMENT_SET_NO":999,"REV_AT_EPOCH":48258,"BSTAR":0.00038670516,"MEAN_MOTION_DOT":7.762e-5,"MEAN_MOTION_DDOT":0},{"OBJECT_NAME":"QUICK3","OBJECT_ID":"2025-135AG","EPOCH":"2026-03-09T21:40:49.946304","MEAN_MOTION":15.24606762,"ECCENTRICITY":0.00063908,"INCLINATION":97.4614,"RA_OF_ASC_NODE":185.4931,"ARG_OF_PERICENTER":144.4818,"MEAN_ANOMALY":215.6846,"EPHEMERIS_TYPE":0,"CLASSIFICATION_TYPE":"U","NORAD_CAT_ID":64558,"ELEMENT_SET_NO":999,"REV_AT_EPOCH":3971,"BSTAR":0.00070513701,"MEAN_MOTION_DOT":0.00017352,"MEAN_MOTION_DDOT":0}]
